[{"OBJECT_NAME":"AAC-AIS-SAT2","OBJECT_ID":"2023-084BY","EPOCH":"2026-03-09T22:09:39.097152","MEAN_MOTION":14.84898245,"ECCENTRICITY":0.00584087,"INCLINATION":98.1313,"RA_OF_ASC_NODE":206.6441,"ARG_OF_PERICENTER":61.4701,"MEAN_ANOMALY":299.2376,"EPHEMERIS_TYPE":0,"CLASSIFICATION_TYPE":"U","NORAD_CAT_ID":56996,"ELEMENT_SET_NO":999,"REV_AT_EPOCH":13864,"BSTAR":0.00055032793,"MEAN_MOTION_DOT":4.769e-5,"MEAN_MOTION_DDOT":0},{"OBJECT_NAME":"PSLV R\/B","OBJECT_ID":"2015-032F","EPOCH":"2026-03-09T21:07:29.271360","MEAN_MOTION":14.8642432,"ECCENTRICITY":0.00058037,"INCLINATION":98.1819,"RA_OF_ASC_NODE":36.049,"ARG_OF_PERICENTER":63.1475,"MEAN_ANOMALY":297.0333,"EPHEMERIS_TYPE":0,"CLASSIFICATION_TYPE":"U","NORAD_CAT_ID":40720,"ELEMENT_SET_NO":999,"REV_AT_EPOCH":57654,"BSTAR":0.00019704626,"MEAN_MOTION_DOT":1.682e-5,"MEAN_MOTION_DDOT":0}]
